APRIZESAT 2             
1 28366U 04025A   19088.56786770 -.00000014  00000-0  98699-5 0  9990
2 28366  98.3085 351.1802 0106443 263.4469  95.4592 14.36669451772973
SAUDICOMSAT 1           
1 28369U 04025D   19088.46586589  .00000058  00000-0  25223-4 0  9997
2 28369  98.2820  38.5842 0033482 180.8399 179.2746 14.52482883781127
SAUDICOMSAT 2           
1 28370U 04025E   19088.39592769  .00000025  00000-0  19047-4 0  9999
2 28370  98.3793  34.0765 0057344 332.5538  27.2629 14.47420308778517
APRIZESAT 1             
1 28372U 04025G   19088.53223979 -.00000003  00000-0  11221-4 0  9994
2 28372  98.3374  35.9916 0045115 260.9992  98.6094 14.49581886779737
NANOSAT-1               
1 28493U 04049B   19088.54922836  .00000039  00000-0  13973-4 0  9997
2 28493  98.1384 172.4573 0005902  90.4767 269.7117 14.73487231766685
SAUDICOMSAT 7           
1 31119U 07012C   19088.41739227  .00000042  00000-0  17615-4 0  9996
2 31119  98.0417  39.9883 0060115 176.5599 183.6028 14.61714840636897
SAUDICOMSAT 6           
1 31121U 07012E   19088.53030906  .00000030  00000-0  16459-4 0  9992
2 31121  98.1008  34.1419 0075310 255.3341 103.9501 14.58515635635520
SAUDICOMSAT 5           
1 31124U 07012H   19088.48576256  .00000066  00000-0  21656-4 0  9996
2 31124  98.0041  43.3912 0052570 136.4768 224.0601 14.63414592637584
SAUDICOMSAT 3           
1 31125U 07012J   19088.46004456  .00000052  00000-0  18328-4 0  9990
2 31125  97.9642  46.9254 0044699  98.0899 262.5379 14.65155489638296
SAUDICOMSAT 4           
1 31127U 07012L   19088.59632413  .00000043  00000-0  18589-4 0  9995
2 31127  98.0714  37.5326 0067274 213.2475 146.4491 14.60228403636263
APRIZESAT 4             
1 35684U 09041D   19088.46998362  .00000039  00000-0  12850-4 0  9995
2 35684  98.2164  50.9459 0047556 163.6921 196.5833 14.79192529521209
APRIZESAT 3             
1 35686U 09041F   19088.56645630  .00000057  00000-0  12844-4 0  9998
2 35686  98.2445 125.0254 0074160  60.5021 300.3564 14.87285498523808
AISSAT 1                
1 36797U 10035C   19088.30480713  .00000133  00000-0  21744-4 0  9992
2 36797  98.1072 221.6402 0011982  42.3292 317.8845 14.86150151471854
S-NET D                 
1 43186U 18014G   19088.59280975 -.00000363  00000-0 -26745-4 0  9999
2 43186  97.7141 358.2060 0009726 279.4499  80.5623 14.96601461 63006
S-NET B                 
1 43187U 18014H   19088.59264125 -.00000356  00000-0 -26117-4 0  9994
2 43187  97.7139 358.1962 0009725 279.4194  80.5928 14.96601423 63001
S-NET A                 
1 43188U 18014J   19088.59241967 -.00000379  00000-0 -28179-4 0  9999
2 43188  97.7142 358.2100 0009714 279.5161  80.4962 14.96601700 63009
S-NET C                 
1 43189U 18014K   19088.52588032 -.00000354  00000-0 -25993-4 0  9994
2 43189  97.7139 358.1282 0009722 279.6978  80.3145 14.96601052 61541
